[{"OBJECT_NAME":"STARLINK-31960","OBJECT_ID":"2024-106K","EPOCH":"2026-03-09T02:07:36.088032","MEAN_MOTION":15.2757336,"ECCENTRICITY":8.434e-5,"INCLINATION":42.9992,"RA_OF_ASC_NODE":335.6842,"ARG_OF_PERICENTER":285.8018,"MEAN_ANOMALY":74.274,"EPHEMERIS_TYPE":0,"CLASSIFICATION_TYPE":"U","NORAD_CAT_ID":59931,"ELEMENT_SET_NO":999,"REV_AT_EPOCH":10043,"BSTAR":-0.00012579596,"MEAN_MOTION_DOT":-3.721e-5,"MEAN_MOTION_DDOT":0},{"OBJECT_NAME":"TRANSPORTER-1 OBJECT AA","OBJECT_ID":"2021-006AA","EPOCH":"2026-03-09T22:58:14.761920","MEAN_MOTION":15.29982294,"ECCENTRICITY":0.00086604,"INCLINATION":97.2381,"RA_OF_ASC_NODE":112.457,"ARG_OF_PERICENTER":185.709,"MEAN_ANOMALY":174.4054,"EPHEMERIS_TYPE":0,"CLASSIFICATION_TYPE":"U","NORAD_CAT_ID":47437,"ELEMENT_SET_NO":999,"REV_AT_EPOCH":28414,"BSTAR":0.0002197941,"MEAN_MOTION_DOT":6.312e-5,"MEAN_MOTION_DDOT":0}]
